0 COSMOS 1275 DEB
1 17635U 81053LH  13282.86836986  .00001627  00000-0  10358-2 0  8959
2 17635 082.8309 119.2315 0045439 266.3271 151.4755 14.02666006445639
0 COSMOS 1275 DEB
1 17635U 81053LH  13286.86439995  .00001911  00000-0  12181-2 0  8976
2 17635 082.8306 116.0819 0045367 254.2573 170.3182 14.02678784446193
0 COSMOS 1275 DEB
1 17635U 81053LH  13288.49794141  .00002383  00000-0  15211-2 0  8986
2 17635 082.8307 114.7943 0045364 249.3616 139.2693 14.02687500446420
0 COSMOS 1275 DEB
1 17635U 81053LH  13289.78807991  .00002108  00000-0  13441-2 0  8996
2 17635 082.8308 113.7773 0045410 245.4905 174.1661 14.02693714446608
0 COSMOS 1275 DEB
1 17635U 81053LH  13291.22764124  .00002308  00000-0  14725-2 0  9009
2 17635 082.8305 112.6426 0045332 241.2779 243.5423 14.02697689446808
0 COSMOS 1275 DEB
1 17635U 81053LH  13292.78352030  .00002462  00000-0  15709-2 0  9015
2 17635 082.8309 111.4161 0045388 236.6551 180.3920 14.02703926447029
0 COSMOS 1275 DEB
1 17635U 81053LH  13294.22345144  .00002804  00000-0  17905-2 0  9025
2 17635 082.8312 110.2811 0045467 232.4191 251.7197 14.02709686447224
0 COSMOS 1275 DEB
1 17635U 81053LH  13295.93675155  .00003043  00000-0  19434-2 0  9038
2 17635 082.8315 108.9306 0045632 227.5241 263.3960 14.02717392447461
